#cP2015  8  1  0  0  0.00000000      96 ORBIT IGb08 HLM  IGS
## 1855 518400.00000000   900.00000000 57235 0.0000000000000
+   32   G01G02G03G04G05G06G07G08G09G10G11G12G13G14G15G16G17
+        G18G19G20G21G22G23G24G25G26G27G28G29G30G31G32  0  0
+          0  0  0  0  0  0  0  0  0  0  0  0  0  0  0  0  0
+          0  0  0  0  0  0  0  0  0  0  0  0  0  0  0  0  0
+          0  0  0  0  0  0  0  0  0  0  0  0  0  0  0  0  0
++         2  2  2  2  2  2  2  0  2  2  2  2  2  2  2  2  2
++         2  2  2  2  2  2  2  2  2  2  2  2  2  2  2  0  0
++         0  0  0  0  0  0  0  0  0  0  0  0  0  0  0  0  0
++         0  0  0  0  0  0  0  0  0  0  0  0  0  0  0  0  0
++         0  0  0  0  0  0  0  0  0  0  0  0  0  0  0  0  0
%c G  cc GPS ccc cccc cccc cccc cccc ccccc ccccc ccccc ccccc
%c cc cc ccc ccc cccc cccc cccc cccc ccccc ccccc ccccc ccccc
%f  1.2500000  1.025000000  0.00000000000  0.000000000000000
%f  0.0000000  0.000000000  0.00000000000  0.000000000000000
%i    0    0    0    0      0      0      0      0         0
%i    0    0    0    0      0      0      0      0         0
/* FINAL ORBIT COMBINATION FROM WEIGHTED AVERAGE OF:        
/* cod emr esa gfz grg jpl mit ngs sio                      
/* REFERENCED TO IGS TIME (IGST) AND TO WEIGHTED MEAN POLE: 
/* PCV:IGS08_1854 OL/AL:FES2004  NONE     Y  ORB:CMB CLK:CMB
*  2015  8  1 12 45  0.00000000
PG01  -4695.292310 -14496.151687 -21821.903291     -1.966425  6  3  6 113       
PG02 -17760.784701  14702.131437  13161.241002    581.652509  7  4  5 114       
PG03 -11702.417317 -21942.718650  -9271.106710     12.803865  6  2  6 101       
PG04   5528.687194 -16617.960834 -20235.308785     -6.224326  8  5  7 118       
PG05  -7050.009628  14534.921094  21001.877322   -211.424568  5  5  5  92       
PG06 -25501.677176   7227.047609   1658.995546     28.732645  7  6  2  88       
PG07 -19465.017712  -7636.474072  16717.005221    477.643819  5  4  5 113       
PG08   6622.483582 -25799.522495  -1445.083558 999999.999999
PG09 -10306.999664 -14370.764890  19807.265021     -9.852967  5  4  3  91       
PG10 -19891.021057  -3078.836048  17140.629482   -184.853412  6  8  5  97       
PG11   -879.353503 -18340.693605 -19707.988139   -595.076926  6  4  5 119       
PG12   8787.027007  22261.706971 -11852.480164    315.036905  5  4  3  87       
PG13 -12817.103824  22959.489292   4037.630118   -137.231207  9  6  4  98       
PG14  16396.152344  -3423.418795 -20323.710678     44.847645  5  5  5 104       
PG15  -2604.957569  25802.504036  -4963.173530   -263.670144  6  4  5  99       
PG16   7654.128260 -13076.596779  21680.448324   -102.242834  7  4  7 106       
PG17 -16267.326890   5334.630329 -19946.683438   -182.448478  8  4  6  88       
PG18  21192.163778  14752.197755  -6321.916026    421.950200 10  7  7 112       
PG19   6835.888440 -25031.958760  -4556.370723   -517.299938  6  4  5 105       
PG20   9586.083094  21349.782682  12330.394676    343.314903  8  2  1 119       
PG21  21594.865609   6075.915658  15183.603308   -468.487025  8  5  5 118       
PG22  20551.462367   3248.192478 -16366.023367    376.923270  8  4  4 111       
PG23  -2165.914914 -23275.869117  12339.225628   -124.536833  3  4  6  83       
PG24   1632.427023  15411.862288 -21596.090339     -2.280977  6  6  4 111       
PG25  18044.657612  19609.080040   -421.667235    -20.012650  5  6  4  94       
PG26  15582.340392  -4854.395089  20945.169840    -18.327287  3  6  5  92       
PG27  12101.513202 -22309.386441   7593.649695      8.619042  4  3  4  78       
PG28 -19822.683793  -9227.881122 -14517.167659    457.592490  9  7  5  56       
PG29   7779.551001  16726.979027  19140.325228    625.693035  8  3  2  78       
PG30 -25533.467747  -1205.642924   7358.924182     -2.338667  7  7  4  99       
PG31  25402.165941  -7596.682698   3615.969186    307.885214  8  4  5  91       
PG32    631.839355 -19870.564812 -17895.024277    -84.365567  7  5  6  69       
*  2015  8  1 13  0  0.00000000
PG01  -2293.251912 -15115.148685 -21768.917697     -1.965929  6  2  5 110       
PG02 -19121.303284  14826.640989  10800.757972    581.654362  7  5  5 123       
PG03 -10684.839092 -21254.119049 -11767.002839     12.806651  6  2  6  93       
PG04   7676.900614 -17096.877805 -19058.738613     -6.227617  7  5  6 115       
PG05  -8833.208107  12860.151747  21431.515156   -211.420545  5  5  5  93       
PG06 -25592.643016   6992.841952  -1201.378457     28.739775  7  6  3 100       
PG07 -17572.932316  -8214.890307  18427.322001    477.645917  3  4  4 103       
PG08   6862.115790 -25743.886824   1402.092033 999999.999999
PG09  -9630.782141 -16460.611870  18475.055479     -9.854168  5  4  4  87       
PG10 -21105.236559  -4572.572825  15338.487038   -184.855159  6  8  6  85       
PG11    955.289646 -19416.515335 -18602.429405   -595.079017  6  3  5 109       
PG12   7709.325598  21263.986883 -14202.196334    315.039929  6  5  3  98       
PG13 -12778.730469  22293.980595   6821.697053   -137.234046  9  6  5 109       
PG14  15669.103464  -1107.125029 -21143.078955     44.845348  4  5  5 110       
PG15  -3037.185196  26124.112859  -2186.582300   -263.672075  7  5  5 108       
PG16   9345.864341 -11210.359387  22089.514841   -102.239137  8  4  7 102       
PG17 -15630.486099   3017.340618 -20921.804809   -182.450042  8  4  7 104       
PG18  21415.985539  15422.858072  -3633.604582    421.953159 10  7  7 108       
PG19   7197.548148 -25259.061969  -1684.146096   -517.300912  6  3  5 113       
PG20   8212.378753  20543.916552  14485.257011    343.318217  7  2    119       
PG21  19989.484933   6730.948736  17047.964328   -468.489722  8  5  5 119       
PG22  21691.905694   4672.204755 -14484.083297    376.926837  9  4  4 115       
PG23  -1568.105222 -24427.023503   9895.377837   -124.539051  4  4  5  90       
PG24   -728.351304  16043.672249 -21167.279093     -2.282501  6  6  4 100       
PG25  17767.724270  19603.968183  -3292.029791    -20.016863  5  7  3  82       
PG26  17189.243855  -3145.294474  19993.610955    -18.333579  3  6  6  96       
PG27  12057.536705 -21261.329214  10219.612599      8.621591  4  3  4  87       
PG28 -20770.526586 -10546.028591 -12216.012857    457.594894  8  7  5  76       
PG29   7021.398714  18681.009831  17563.680602    625.695064  7  4  3  64       
PG30 -24606.727417  -1630.700107   9962.970429     -2.332023  7  7  5 111       
PG31  25672.787508  -7467.052223    766.427559    307.883833  8  4  5  89       
PG32   2094.753465 -18344.787072 -19309.102852    -84.356548  7  5  7  97       
*  2015  8  1 13 15  0.00000000
PG01     49.134408 -15851.783294 -21343.081393     -1.965403  6  2  5 121       
PG02 -20217.951799  14919.140864   8253.104322    581.656141  7  6  5 129       
PG03  -9429.881324 -20439.237021 -14059.922292     12.809428  6  2  6  80       
PG04   9661.693026 -17631.974992 -17560.402647     -6.231023  7  5  6 118       
PG05 -10716.675296  11258.845431  21490.247851   -211.416577  5  5  5  95       
PG06 -25389.785882   6660.828292  -4041.071303     28.746962  8  7  4  96       
PG07 -15546.444414  -8947.714405  19827.404965    477.647778  2  4  4 105       
PG08   7041.592914 -25388.830309   4225.461456 999999.999999
PG09  -9095.858270 -18417.022799  16824.648393     -9.855402  5  3  4  86       
PG10 -22225.974766  -5853.133164  13270.184884   -184.855980  7  8  7  80       
PG11   2637.236306 -20485.176995 -17188.942450   -595.081230  6  3  5  91       
PG12   6395.646053  20154.540088 -16311.508853    315.042888  5  5  3  77       
PG13 -12682.705633  21332.523427   9488.687810   -137.237084  9  6  4 112       
PG14  15043.982599   1312.836095 -21589.455002     44.842774  4  5  5 101       
PG15  -3406.158345  26151.866983    628.359989   -263.674103  8  5  5 110       
PG16  11155.119891  -9427.450086  22114.864097   -102.235213  8  4  8  94       
PG17 -15095.562536    582.411563 -21525.728747   -182.451390  8  4  7 104       
PG18  21440.324831  15880.201668   -883.264018    421.955717 10  7  6  89       
PG19   7452.427497 -25187.988116   1217.845590   -517.301728  6  3  4  97       
PG20   6619.774285  19662.754269  16387.558864    343.321042  7  2    119       
PG21  18241.869093   7526.378338  18636.728507   -468.492473  7  5  5 111       
PG22  22723.091019   5892.544306 -12351.112893    376.930202  9  4  4 110       
PG23  -1084.283060 -25325.815288   7278.173667   -124.541012  5  5  5  89       
PG24  -2990.309814  16772.240195 -20374.664047     -2.282877  6  6  4  89       
PG25  17250.864011  19401.370016  -6106.380868    -20.021070  5  7  3  61       
PG26  18787.234280  -1606.134487  18697.769036    -18.339909  4  6  6  91       
PG27  12012.479787 -19929.719067  12668.348906      8.624192  4  3  4  83       
PG28 -21595.564599 -11605.989432  -9698.367074    457.596788  8  7  4  73       
PG29   6419.729732  20483.815054  15685.636371    625.696586  6  4  3  83       
PG30 -23427.190747  -2173.218276  12396.254066     -2.325433  6  7  5 108       
PG31  25642.827476  -7259.372470  -2096.017671    307.882599  8  4  5  90       
PG32   3733.571180 -16791.240913 -20396.676591    -84.347158  7  5  7 101       
EOF
